STARLINK-1892_new
1 16743C 20074E   21326.13106965  .00005045  00000-0  33805-3 0  3262
2 16743  53.0510 163.1503 0005923  76.9494 159.0928 15.06378459    10
STARLINK-1892_old
1 26743C 20074E   21325.16271976 -.00018132  00000-0 -12144-2 0  3253
2 26743  53.0505 167.4979 0005959  74.9599 306.7848 15.06415198    15
